CCSDS_OMM_VERS = 2.0
CREATION_DATE  = 
ORIGINATOR     = 

OBJECT_NAME    = SL-16 R/B
OBJECT_ID      = 1993-016B
CENTER_NAME    = EARTH
REF_FRAME      = TEME
TIME_SYSTEM    = UTC
MEAN_ELEMENT_THEORY = SGP/SGP4

EPOCH          = 2025-12-09T04:06:35.476416
MEAN_MOTION    = 14.15287287
ECCENTRICITY   = .0007836
INCLINATION    = 71.0087
RA_OF_ASC_NODE = 45.2988
ARG_OF_PERICENTER = 104.4208
MEAN_ANOMALY   = 255.7785

EPHEMERIS_TYPE = 0
CLASSIFICATION_TYPE = U
NORAD_CAT_ID   = 22566
ELEMENT_SET_NO = 999
REV_AT_EPOCH   = 68936
BSTAR          = -.65188E-4
MEAN_MOTION_DOT = -.175E-5
MEAN_MOTION_DDOT = 0

CCSDS_OMM_VERS = 2.0
CREATION_DATE  = 
ORIGINATOR     = 

OBJECT_NAME    = COSMOS 2242
OBJECT_ID      = 1993-024A
CENTER_NAME    = EARTH
REF_FRAME      = TEME
TIME_SYSTEM    = UTC
MEAN_ELEMENT_THEORY = SGP/SGP4

EPOCH          = 2025-12-09T02:11:00.850848
MEAN_MOTION    = 14.96081595
ECCENTRICITY   = .0014819
INCLINATION    = 82.5187
RA_OF_ASC_NODE = 353.3322
ARG_OF_PERICENTER = 247.7111
MEAN_ANOMALY   = 112.2540

EPHEMERIS_TYPE = 0
CLASSIFICATION_TYPE = U
NORAD_CAT_ID   = 22626
ELEMENT_SET_NO = 999
REV_AT_EPOCH   = 76684
BSTAR          = .23788E-3
MEAN_MOTION_DOT = .2703E-4
MEAN_MOTION_DDOT = 0

CCSDS_OMM_VERS = 2.0
CREATION_DATE  = 
ORIGINATOR     = 

OBJECT_NAME    = SL-16 R/B
OBJECT_ID      = 1993-059B
CENTER_NAME    = EARTH
REF_FRAME      = TEME
TIME_SYSTEM    = UTC
MEAN_ELEMENT_THEORY = SGP/SGP4

EPOCH          = 2025-12-09T01:29:04.837920
MEAN_MOTION    = 14.17213324
ECCENTRICITY   = .0017772
INCLINATION    = 70.9897
RA_OF_ASC_NODE = 202.2418
ARG_OF_PERICENTER = 340.8544
MEAN_ANOMALY   = 19.1909

EPHEMERIS_TYPE = 0
CLASSIFICATION_TYPE = U
NORAD_CAT_ID   = 22803
ELEMENT_SET_NO = 999
REV_AT_EPOCH   = 66669
BSTAR          = .63671E-4
MEAN_MOTION_DOT = .81E-6
MEAN_MOTION_DDOT = 0

CCSDS_OMM_VERS = 2.0
CREATION_DATE  = 
ORIGINATOR     = 

OBJECT_NAME    = ARIANE 40 R/B
OBJECT_ID      = 1993-061H
CENTER_NAME    = EARTH
REF_FRAME      = TEME
TIME_SYSTEM    = UTC
MEAN_ELEMENT_THEORY = SGP/SGP4

EPOCH          = 2025-12-09T04:42:50.819328
MEAN_MOTION    = 14.32797683
ECCENTRICITY   = .0010673
INCLINATION    = 98.5080
RA_OF_ASC_NODE = 48.7908
ARG_OF_PERICENTER = 186.4136
MEAN_ANOMALY   = 173.6914

EPHEMERIS_TYPE = 0
CLASSIFICATION_TYPE = U
NORAD_CAT_ID   = 22830
ELEMENT_SET_NO = 999
REV_AT_EPOCH   = 68114
BSTAR          = .17474E-3
MEAN_MOTION_DOT = .433E-5
MEAN_MOTION_DDOT = 0

CCSDS_OMM_VERS = 2.0
CREATION_DATE  = 
ORIGINATOR     = 

OBJECT_NAME    = COSMOS 2278
OBJECT_ID      = 1994-023A
CENTER_NAME    = EARTH
REF_FRAME      = TEME
TIME_SYSTEM    = UTC
MEAN_ELEMENT_THEORY = SGP/SGP4

EPOCH          = 2025-12-09T03:23:10.677120
MEAN_MOTION    = 14.14351068
ECCENTRICITY   = .0008514
INCLINATION    = 71.0546
RA_OF_ASC_NODE = 4.5402
ARG_OF_PERICENTER = 185.4540
MEAN_ANOMALY   = 174.6491

EPHEMERIS_TYPE = 0
CLASSIFICATION_TYPE = U
NORAD_CAT_ID   = 23087
ELEMENT_SET_NO = 999
REV_AT_EPOCH   = 63200
BSTAR          = -.42673E-4
MEAN_MOTION_DOT = -.129E-5
MEAN_MOTION_DDOT = 0

CCSDS_OMM_VERS = 2.0
CREATION_DATE  = 
ORIGINATOR     = 

OBJECT_NAME    = SL-16 R/B
OBJECT_ID      = 1994-023B
CENTER_NAME    = EARTH
REF_FRAME      = TEME
TIME_SYSTEM    = UTC
MEAN_ELEMENT_THEORY = SGP/SGP4

EPOCH          = 2025-12-09T03:47:48.598368
MEAN_MOTION    = 14.15001861
ECCENTRICITY   = .0001191
INCLINATION    = 71.0010
RA_OF_ASC_NODE = 261.0067
ARG_OF_PERICENTER = 42.0453
MEAN_ANOMALY   = 318.0761

EPHEMERIS_TYPE = 0
CLASSIFICATION_TYPE = U
NORAD_CAT_ID   = 23088
ELEMENT_SET_NO = 999
REV_AT_EPOCH   = 63328
BSTAR          = .1278E-3
MEAN_MOTION_DOT = .2E-5
MEAN_MOTION_DDOT = 0

CCSDS_OMM_VERS = 2.0
CREATION_DATE  = 
ORIGINATOR     = 

OBJECT_NAME    = SL-16 R/B
OBJECT_ID      = 1994-074B
CENTER_NAME    = EARTH
REF_FRAME      = TEME
TIME_SYSTEM    = UTC
MEAN_ELEMENT_THEORY = SGP/SGP4

EPOCH          = 2025-12-09T02:08:33.338400
MEAN_MOTION    = 14.79282790
ECCENTRICITY   = .000729
INCLINATION    = 97.7204
RA_OF_ASC_NODE = 12.5388
ARG_OF_PERICENTER = 146.3356
MEAN_ANOMALY   = 271.7214

EPHEMERIS_TYPE = 0
CLASSIFICATION_TYPE = U
NORAD_CAT_ID   = 23343
ELEMENT_SET_NO = 999
REV_AT_EPOCH   = 67385
BSTAR          = .10903E-3
MEAN_MOTION_DOT = .762E-5
MEAN_MOTION_DDOT = 0

CCSDS_OMM_VERS = 2.0
CREATION_DATE  = 
ORIGINATOR     = 

OBJECT_NAME    = SL-16 R/B
OBJECT_ID      = 1994-077B
CENTER_NAME    = EARTH
REF_FRAME      = TEME
TIME_SYSTEM    = UTC
MEAN_ELEMENT_THEORY = SGP/SGP4

EPOCH          = 2025-12-08T23:06:52.900128
MEAN_MOTION    = 14.15547312
ECCENTRICITY   = .0004593
INCLINATION    = 70.9812
RA_OF_ASC_NODE = 183.3590
ARG_OF_PERICENTER = 286.8746
MEAN_ANOMALY   = 73.1873

EPHEMERIS_TYPE = 0
CLASSIFICATION_TYPE = U
NORAD_CAT_ID   = 23405
ELEMENT_SET_NO = 999
REV_AT_EPOCH   = 60339
BSTAR          = .14451E-3
MEAN_MOTION_DOT = .235E-5
MEAN_MOTION_DDOT = 0

CCSDS_OMM_VERS = 2.0
CREATION_DATE  = 
ORIGINATOR     = 

OBJECT_NAME    = ARIANE 40+ R/B
OBJECT_ID      = 1995-021B
CENTER_NAME    = EARTH
REF_FRAME      = TEME
TIME_SYSTEM    = UTC
MEAN_ELEMENT_THEORY = SGP/SGP4

EPOCH          = 2025-12-09T04:35:49.156224
MEAN_MOTION    = 14.39691045
ECCENTRICITY   = .0007611
INCLINATION    = 98.4654
RA_OF_ASC_NODE = 50.8231
ARG_OF_PERICENTER = 59.2908
MEAN_ANOMALY   = 358.8760

EPHEMERIS_TYPE = 0
CLASSIFICATION_TYPE = U
NORAD_CAT_ID   = 23561
ELEMENT_SET_NO = 999
REV_AT_EPOCH   = 60622
BSTAR          = .17569E-3
MEAN_MOTION_DOT = .506E-5
MEAN_MOTION_DDOT = 0

CCSDS_OMM_VERS = 2.0
CREATION_DATE  = 
ORIGINATOR     = 

OBJECT_NAME    = SL-16 R/B
OBJECT_ID      = 1995-058B
CENTER_NAME    = EARTH
REF_FRAME      = TEME
TIME_SYSTEM    = UTC
MEAN_ELEMENT_THEORY = SGP/SGP4

EPOCH          = 2025-12-09T04:15:46.579680
MEAN_MOTION    = 14.15482634
ECCENTRICITY   = .0014931
INCLINATION    = 71.0225
RA_OF_ASC_NODE = 10.2831
ARG_OF_PERICENTER = 259.6530
MEAN_ANOMALY   = 100.2910

EPHEMERIS_TYPE = 0
CLASSIFICATION_TYPE = U
NORAD_CAT_ID   = 23705
ELEMENT_SET_NO = 999
REV_AT_EPOCH   = 55504
BSTAR          = .13278E-3
MEAN_MOTION_DOT = .212E-5
MEAN_MOTION_DDOT = 0

CCSDS_OMM_VERS = 2.0
CREATION_DATE  = 
ORIGINATOR     = 

OBJECT_NAME    = SL-16 R/B
OBJECT_ID      = 1996-051B
CENTER_NAME    = EARTH
REF_FRAME      = TEME
TIME_SYSTEM    = UTC
MEAN_ELEMENT_THEORY = SGP/SGP4

EPOCH          = 2025-12-09T03:50:22.123392
MEAN_MOTION    = 14.12396053
ECCENTRICITY   = .0019333
INCLINATION    = 70.7596
RA_OF_ASC_NODE = 6.8616
ARG_OF_PERICENTER = 265.7286
MEAN_ANOMALY   = 94.1625

EPHEMERIS_TYPE = 0
CLASSIFICATION_TYPE = U
NORAD_CAT_ID   = 24298
ELEMENT_SET_NO = 999
REV_AT_EPOCH   = 50886
BSTAR          = .39737E-4
MEAN_MOTION_DOT = .24E-6
MEAN_MOTION_DDOT = 0

CCSDS_OMM_VERS = 2.0
CREATION_DATE  = 
ORIGINATOR     = 

OBJECT_NAME    = ORBVIEW 2 (SEASTAR)
OBJECT_ID      = 1997-037A
CENTER_NAME    = EARTH
REF_FRAME      = TEME
TIME_SYSTEM    = UTC
MEAN_ELEMENT_THEORY = SGP/SGP4

EPOCH          = 2025-12-09T00:16:57.197568
MEAN_MOTION    = 14.35412559
ECCENTRICITY   = .0001839
INCLINATION    = 98.8455
RA_OF_ASC_NODE = 139.9924
ARG_OF_PERICENTER = 353.9041
MEAN_ANOMALY   = 6.2120

EPHEMERIS_TYPE = 0
CLASSIFICATION_TYPE = U
NORAD_CAT_ID   = 24883
ELEMENT_SET_NO = 999
REV_AT_EPOCH   = 49546
BSTAR          = .1965E-3
MEAN_MOTION_DOT = .518E-5
MEAN_MOTION_DDOT = 0

