SL-16 R/B               
1 22566U 93016B   25343.17124394 -.00000175  00000+0 -65188-4 0  9994
2 22566  71.0087  45.2988 0007836 104.4208 255.7785 14.15287287689361
COSMOS 2242             
1 22626U 93024A   25343.09098207  .00002703  00000+0  23788-3 0  9990
2 22626  82.5187 353.3322 0014819 247.7111 112.2540 14.96081595766842
SL-16 R/B               
1 22803U 93059B   25343.06186155  .00000081  00000+0  63671-4 0  9995
2 22803  70.9897 202.2418 0017772 340.8544  19.1909 14.17213324666698
ARIANE 40 R/B           
1 22830U 93061H   25343.19642152  .00000433  00000+0  17474-3 0  9996
2 22830  98.5080  48.7908 0010673 186.4136 173.6914 14.32797683681140
COSMOS 2278             
1 23087U 94023A   25343.14109580 -.00000129  00000+0 -42673-4 0  9992
2 23087  71.0546   4.5402 0008514 185.4540 174.6491 14.14351068632001
SL-16 R/B               
1 23088U 94023B   25343.15820137  .00000200  00000+0  12780-3 0  9995
2 23088  71.0010 261.0067 0001191  42.0453 318.0761 14.15001861633289
SL-16 R/B               
1 23343U 94074B   25343.08927475  .00000762  00000+0  10903-3 0  9998
2 23343  97.7204  12.5388 0007290 146.3356 271.7214 14.79282790673851
SL-16 R/B               
1 23405U 94077B   25342.96311227  .00000235  00000+0  14451-3 0  9995
2 23405  70.9812 183.3590 0004593 286.8746  73.1873 14.15547312603397
ARIANE 40+ R/B          
1 23561U 95021B   25343.19154116  .00000506  00000+0  17569-3 0  9990
2 23561  98.4654  50.8231 0007611  59.2908 358.8760 14.39691045606227
SL-16 R/B               
1 23705U 95058B   25343.17762245  .00000212  00000+0  13278-3 0  9993
2 23705  71.0225  10.2831 0014931 259.6530 100.2910 14.15482634555049
SL-16 R/B               
1 24298U 96051B   25343.15997828  .00000024  00000+0  39737-4 0  9990
2 24298  70.7596   6.8616 0019333 265.7286  94.1625 14.12396053508861
ORBVIEW 2 (SEASTAR)     
1 24883U 97037A   25343.01177312  .00000518  00000+0  19650-3 0  9997
2 24883  98.8455 139.9924 0001839 353.9041   6.2120 14.35412559495467
